{
    "links": {
        "self": "http://www.neowsapp.com/rest/v1/neo/3761737?api_key=iIulBulltgU6a56xZRHN4H3l9WmuAYTsLGpBGhQ2"
    },
    "id": "3761737",
    "neo_reference_id": "3761737",
    "name": "(2016 UX40)",
    "designation": "2016 UX40",
    "nasa_jpl_url": "http://ssd.jpl.nasa.gov/sbdb.cgi?sstr=3761737",
    "absolute_magnitude_h": 26.0,
    "estimated_diameter": {
        "kilometers": {
            "estimated_diameter_min": 0.0167708462,
            "estimated_diameter_max": 0.0375007522
        },
        "meters": {
            "estimated_diameter_min": 16.7708462163,
            "estimated_diameter_max": 37.5007521798
        },
        "miles": {
            "estimated_diameter_min": 0.0104209175,
            "estimated_diameter_max": 0.0233018799
        },
        "feet": {
            "estimated_diameter_min": 55.0224631002,
            "estimated_diameter_max": 123.0339677816
        }
    },
    "is_potentially_hazardous_asteroid": false,
    "close_approach_data": [
        {
            "close_approach_date": "1952-04-24",
            "close_approach_date_full": "1952-Apr-24 21:54",
            "epoch_date_close_approach": -558151560000,
            "relative_velocity": {
                "kilometers_per_second": "7.0581656966",
                "kilometers_per_hour": "25409.3965077847",
                "miles_per_hour": "15788.4108467399"
            },
            "miss_distance": {
                "astronomical": "0.0680944472",
                "lunar": "26.4887399608",
                "kilometers": "10186784.259947464",
                "miles": "6329774.2236004432"
            },
            "orbiting_body": "Mars"
        },
        {
            "close_approach_date": "1954-10-26",
            "close_approach_date_full": "1954-Oct-26 04:07",
            "epoch_date_close_approach": -479159580000,
            "relative_velocity": {
                "kilometers_per_second": "10.8865773616",
                "kilometers_per_hour": "39191.678501796",
                "miles_per_hour": "24352.1849001854"
            },
            "miss_distance": {
                "astronomical": "0.2708991491",
                "lunar": "105.3797689999",
                "kilometers": "40525935.690172417",
                "miles": "25181648.7493046746"
            },
            "orbiting_body": "Earth"
        },
        {
            "close_approach_date": "2014-05-26",
            "close_approach_date_full": "2014-May-26 18:49",
            "epoch_date_close_approach": 1401130140000,
            "relative_velocity": {
                "kilometers_per_second": "5.1448359106",
                "kilometers_per_hour": "18521.4092782178",
                "miles_per_hour": "11508.4834484571"
            },
            "miss_distance": {
                "astronomical": "0.0652635879",
                "lunar": "25.3875356931",
                "kilometers": "9763293.738397773",
                "miles": "6066629.4156963474"
            },
            "orbiting_body": "Mars"
        },
        {
            "close_approach_date": "2016-11-12",
            "close_approach_date_full": "2016-Nov-12 09:28",
            "epoch_date_close_approach": 1478942880000,
            "relative_velocity": {
                "kilometers_per_second": "4.4026648685",
                "kilometers_per_hour": "15849.5935265445",
                "miles_per_hour": "9848.3210443131"
            },
            "miss_distance": {
                "astronomical": "0.0587979814",
                "lunar": "22.8724147646",
                "kilometers": "8796052.777739618",
                "miles": "5465613.7522100084"
            },
            "orbiting_body": "Earth"
        }
    ],
    "orbital_data": {
        "orbit_id": "5",
        "orbit_determination_date": "2017-04-06 08:22:45",
        "first_observation_date": "2016-10-25",
        "last_observation_date": "2016-11-16",
        "data_arc_in_days": 22,
        "observations_used": 33,
        "orbit_uncertainty": "8",
        "minimum_orbit_intersection": ".0561522",
        "jupiter_tisserand_invariant": "4.866",
        "epoch_osculation": "2457688.5",
        "eccentricity": ".2365482611382625",
        "semi_major_axis": "1.339375419672552",
        "inclination": "5.537608219696064",
        "ascending_node_longitude": "33.72461641887775",
        "orbital_period": "566.1765967387452",
        "perihelion_distance": "1.022548493137679",
        "perihelion_argument": "39.8761062183164",
        "aphelion_distance": "1.656202346207424",
        "perihelion_time": "2457726.167685724678",
        "mean_anomaly": "336.0492275042917",
        "mean_motion": ".6358440141709307",
        "equinox": "J2000",
        "orbit_class": {
            "orbit_class_type": "AMO",
            "orbit_class_description": "Near-Earth asteroid orbits similar to that of 1221 Amor",
            "orbit_class_range": "1.017 AU < q (perihelion) < 1.3 AU"
        }
    },
    "is_sentry_object": false
}